SatCatId,ObjectName,LaunchYear,OrbitalPeriod,LaunchMass,StatusCode,Inclination,Status,UcsData,OrbitClassEstimated,LaunchSiteCountry,Owner,UseType,Purpose,LaunchVehicleClass,TLE1,TLE2,MeanMotion,Eccentricity,OrbitClass
57910,STARLINK-30453,2023,95.84,-1.0,+,43.0,Active,0,LEO,USA,USA,Unknown,Unknown,Falcon,1 57910U 23146V   24102.48922575  .00000777  00000+0  72567-4 0  9990,2 57910  43.0037 141.3508 0001207 274.9983  85.0721 15.02537798 31133,15.02537798,0.0001207,LEO
57911,STARLINK-30478,2023,95.84,-1.0,+,43.0,Active,0,LEO,USA,USA,Unknown,Unknown,Falcon,1 57911U 23146W   24102.47479131 -.00003841  00000+0 -26930-3 0  9994,2 57911  43.0024 141.2381 0001499 267.5576  92.5095 15.02547795 32199,15.02547795,0.0001499,LEO
57912,STARLINK-30477,2023,95.84,-1.0,+,43.0,Active,0,LEO,USA,USA,Unknown,Unknown,Falcon,1 57912U 23146X   24102.48589573  .00002685  00000+0  21376-3 0  9990,2 57912  43.0019 141.3252 0001223 273.5674  86.5029 15.02539873 32191,15.02539873,0.0001223,LEO
57913,STARLINK-30450,2023,95.84,-1.0,+,43.0,Active,0,LEO,USA,USA,Unknown,Unknown,Falcon,1 57913U 23147A   24102.47241667  .00000025  00000+0  16900-4 0  9994,2 57913  43.0038 154.9408 0001110 264.7235  95.3481 15.02537089 31709,15.02537089,0.000111,LEO
57914,STARLINK-30483,2023,94.37,-1.0,+,43.0,Active,0,LEO,USA,USA,Unknown,Unknown,Falcon,1 57914U 23147B   24102.58334491  .00073550  00000+0  27990-2 0  9997,2 57914  42.9991 149.9317 0001795 278.3052  33.9355 15.25844914  5843,15.25844914,0.0001795,LEO
57915,STARLINK-30454,2023,95.84,-1.0,+,43.0,Active,0,LEO,USA,USA,Unknown,Unknown,Falcon,1 57915U 23147C   24102.46575189 -.00000372  00000+0 -12452-4 0  9999,2 57915  43.0025 154.8914 0000692 272.6667  87.4096 15.02549166 31702,15.02549166,6.92e-05,LEO
57916,STARLINK-30491,2023,94.17,-1.0,P,43.01,Active,0,LEO,USA,USA,Unknown,Unknown,Falcon,1 57916U 23147D   24102.54964388  .00042677  00000+0  14701-2 0  9991,2 57916  43.0060 141.0410 0018235  72.8775 287.4073 15.29187543 31908,15.29187543,0.0018235,LEO
57917,STARLINK-30501,2023,95.84,-1.0,+,43.0,Active,0,LEO,USA,USA,Unknown,Unknown,Falcon,1 57917U 23147E   24102.46242741  .00000220  00000+0  31344-4 0  9997,2 57917  43.0027 154.8665 0000989 283.3990  76.6742 15.02536926 31737,15.02536926,9.89e-05,LEO
57918,STARLINK-30499,2023,94.37,-1.0,+,43.0,Active,0,LEO,USA,USA,Unknown,Unknown,Falcon,1 57918U 23147F   24102.58334491  .00034340  00000+0  13171-2 0  9991,2 57918  43.0001 152.7756 0001792 283.6303 261.9793 15.25894013  5816,15.25894013,0.0001792,LEO
57919,STARLINK-30496,2023,95.84,-1.0,+,43.0,Active,0,LEO,USA,USA,Unknown,Unknown,Falcon,1 57919U 23147G   24102.45573013 -.00011964  00000+0 -87241-3 0  9992,2 57919  43.0015 154.8158 0001086 278.7160  81.3559 15.02523087 31732,15.02523087,0.0001086,LEO
57920,STARLINK-30485,2023,95.84,-1.0,+,43.0,Active,0,LEO,USA,USA,Unknown,Unknown,Falcon,1 57920U 23147H   24102.45244177  .00000767  00000+0  71883-4 0  9993,2 57920  43.0039 154.7918 0001291 274.2339  85.8356 15.02533451 31730,15.02533451,0.0001291,LEO
57921,STARLINK-30492,2023,95.84,-1.0,+,43.0,Active,0,LEO,USA,USA,Unknown,Unknown,Falcon,1 57921U 23147J   24102.44910933  .00001143  00000+0  99683-4 0  9990,2 57921  43.0034 154.7659 0001094 273.9474  86.1243 15.02538688 31708,15.02538688,0.0001094,LEO
57923,STARLINK-30440,2023,95.84,-1.0,+,43.0,Active,0,LEO,USA,USA,Unknown,Unknown,Falcon,1 57923U 23147L   24102.37930071 -.00000477  00000+0 -20252-4 0  9996,2 57923  43.0031 155.1005 0001130 281.2272  78.8443 15.02534420 31728,15.0253442,0.000113,LEO
57924,STARLINK-30487,2023,95.84,-1.0,+,43.0,Active,0,LEO,USA,USA,Unknown,Unknown,Falcon,1 57924U 23147M   24102.49227429 -.00000960  00000+0 -55968-4 0  9995,2 57924  43.0012 154.2265 0001229 271.6661  88.4040 15.02536513 31747,15.02536513,0.0001229,LEO
57925,STARLINK-30452,2023,95.84,-1.0,+,43.0,Active,0,LEO,USA,USA,Unknown,Unknown,Falcon,1 57925U 23147N   24102.57540667 -.00000148  00000+0  41077-5 0  9991,2 57925  43.0038 153.9921 0001673 265.1156  94.9495 15.02533416 31724,15.02533416,0.0001673,LEO
57926,STARLINK-30468,2023,95.84,-1.0,+,43.0,Active,0,LEO,USA,USA,Unknown,Unknown,Falcon,1 57926U 23147P   24102.43911910 -.00001083  00000+0 -65145-4 0  9991,2 57926  43.0024 154.6941 0000851 278.0076  82.0670 15.02541963 31708,15.02541963,8.51e-05,LEO
57927,STARLINK-30459,2023,94.99,-1.0,+,43.0,Active,0,LEO,USA,USA,Unknown,Unknown,Falcon,1 57927U 23147Q   24102.49392378  .00002199  00000+0  12441-3 0  9996,2 57927  42.9976 148.3062 0000203 354.6854   5.3991 15.15959408 31786,15.15959408,2.03e-05,LEO
57928,STARLINK-30448,2023,95.84,-1.0,+,43.0,Active,0,LEO,USA,USA,Unknown,Unknown,Falcon,1 57928U 23147R   24102.56541723  .00000337  00000+0  40022-4 0  9994,2 57928  43.0027 153.9164 0000906 278.4245  81.6494 15.02539556 31721,15.02539556,9.06e-05,LEO
57929,STARLINK-30475,2023,94.37,-1.0,+,43.0,Active,0,LEO,USA,USA,Unknown,Unknown,Falcon,1 57929U 23147S   24102.58334491  .00075880  00000+0  28857-2 0  9994,2 57929  43.0001 151.8836 0001381 274.4293 284.3531 15.25853872  5713,15.25853872,0.0001381,LEO
57930,STARLINK-30476,2023,95.84,-1.0,+,43.0,Active,0,LEO,USA,USA,Unknown,Unknown,Falcon,1 57930U 23147T   24102.45598680 -.00001174  00000+0 -71813-4 0  9993,2 57930  43.0020 141.5088 0000900 250.6895 109.3850 15.02540375 31851,15.02540375,9e-05,LEO
57931,STARLINK-30488,2023,95.84,-1.0,+,43.0,Active,0,LEO,USA,USA,Unknown,Unknown,Falcon,1 57931U 23147U   24102.49561056 -.00004237  00000+0 -29867-3 0  9999,2 57931  43.0016 154.2513 0000409 192.5420 167.5412 15.02550332 31745,15.02550332,4.09e-05,LEO
57932,STARLINK-30471,2023,95.84,-1.0,+,43.0,Active,0,LEO,USA,USA,Unknown,Unknown,Falcon,1 57932U 23147V   24102.47895874  .00000063  00000+0  19701-4 0  9994,2 57932  43.0023 154.1258 0001058 274.8029  85.2693 15.02537506 31711,15.02537506,0.0001058,LEO
57933,STARLINK-30461,2023,95.84,-1.0,+,43.0,Active,0,LEO,USA,USA,Unknown,Unknown,Falcon,1 57933U 23147W   24102.48894604 -.00000501  00000+0 -22034-4 0  9998,2 57933  43.0018 154.2062 0000890 272.8221  87.2519 15.02538546 31719,15.02538546,8.9e-05,LEO
57934,STARLINK-30458,2023,95.84,-1.0,+,43.01,Active,0,LEO,USA,USA,Unknown,Unknown,Falcon,1 57934U 23147X   24102.48562078  .00002069  00000+0  16816-3 0  9995,2 57934  43.0023 154.1776 0001427 279.6372  80.4309 15.02536270 31710,15.0253627,0.0001427,LEO
57935,STARLINK-30712,2023,94.24,-1.0,+,53.11,Active,0,LEO,USA,USA,Unknown,Unknown,Falcon,1 57935U 23148A   24102.19338924  .00053109  00000+0  19147-2 0  9996,2 57935  53.1072  23.4128 0001195 128.8428 231.2678 15.28047064 31648,15.28047064,0.0001195,LEO
57936,STARLINK-30716,2023,94.24,-1.0,+,53.1,Active,0,LEO,USA,USA,Unknown,Unknown,Falcon,1 57936U 23148B   24102.49233042 -.00000106  00000+0  88508-5 0  9995,2 57936  53.0991  21.6925 0001226  91.5004 268.6135 15.28001948 31692,15.28001948,0.0001226,LEO
57937,STARLINK-30400,2023,94.24,-1.0,+,53.1,Active,0,LEO,USA,USA,Unknown,Unknown,Falcon,1 57937U 23148C   24102.18870720  .00030020  00000+0  10913-2 0  9991,2 57937  53.1009  23.3691 0001434 138.9519 221.1588 15.28042764 31643,15.28042764,0.0001434,LEO
57938,STARLINK-30710,2023,94.24,-1.0,+,53.07,Active,0,LEO,USA,USA,Unknown,Unknown,Falcon,1 57938U 23148D   24102.17771074  .00007128  00000+0  26990-3 0  9999,2 57938  53.0672  16.7238 0000745  55.3158 304.7911 15.28001587 31733,15.28001587,7.45e-05,LEO
57939,STARLINK-30714,2023,94.24,-1.0,+,53.1,Active,0,LEO,USA,USA,Unknown,Unknown,Falcon,1 57939U 23148E   24102.49267669 -.00012548  00000+0 -44107-3 0  9999,2 57939  53.0990  21.6937 0001546  88.5256 271.5920 15.28020782 31699,15.28020782,0.0001546,LEO
57940,STARLINK-30711,2023,94.25,-1.0,+,53.1,Active,0,LEO,USA,USA,Unknown,Unknown,Falcon,1 57940U 23148F   24102.47833370  .00077408  00000+0  27805-2 0  9996,2 57940  53.0948  21.6134 0001435  83.1477 276.9685 15.27991968 31695,15.27991968,0.0001435,LEO
57941,STARLINK-30715,2023,94.24,-1.0,+,53.1,Active,0,LEO,USA,USA,Unknown,Unknown,Falcon,1 57941U 23148G   24102.16095569  .00025567  00000+0  93225-3 0  9992,2 57941  53.0982  23.1845 0001108 145.3825 214.7247 15.28028225 31642,15.28028225,0.0001108,LEO
57942,STARLINK-30455,2023,94.24,-1.0,+,53.09,Active,0,LEO,USA,USA,Unknown,Unknown,Falcon,1 57942U 23148H   24102.48298517  .00007471  00000+0  28225-3 0  9998,2 57942  53.0903  21.6235 0001584  97.3549 262.7630 15.28002191 31697,15.28002191,0.0001584,LEO
57943,STARLINK-30456,2023,94.24,-1.0,+,53.11,Active,0,LEO,USA,USA,Unknown,Unknown,Falcon,1 57943U 23148J   24102.16063236  .00011507  00000+0  42730-3 0  9994,2 57943  53.1069  23.2095 0000826  94.8678 265.2415 15.28031448 31648,15.28031448,8.26e-05,LEO
57944,STARLINK-30708,2023,94.24,-1.0,+,53.11,Active,0,LEO,USA,USA,Unknown,Unknown,Falcon,1 57944U 23148K   24102.51140620  .00020612  00000+0  75421-3 0  9997,2 57944  53.1088  21.8366 0000874 111.4916 248.6176 15.28041797 31691,15.28041797,8.74e-05,LEO
57945,STARLINK-30705,2023,94.24,-1.0,+,53.11,Active,0,LEO,USA,USA,Unknown,Unknown,Falcon,1 57945U 23148L   24102.17501302  .00028402  00000+0  10333-2 0  9993,2 57945  53.1090  23.2984 0001144 164.6899 195.4135 15.28044793 31646,15.28044793,0.0001144,LEO
57946,STARLINK-30704,2023,95.64,-1.0,+,53.11,Active,0,LEO,USA,USA,Unknown,Unknown,Falcon,1 57946U 23148M   24102.50938978  .00007671  00000+0  54507-3 0  9991,2 57946  53.1075  21.7420 0001529  88.5094 271.6071 15.05579763 31692,15.05579763,0.0001529,LEO
57947,STARLINK-30706,2023,94.24,-1.0,+,53.11,Active,0,LEO,USA,USA,Unknown,Unknown,Falcon,1 57947U 23148N   24102.49703554  .00007225  00000+0  27331-3 0  9990,2 57947  53.1090  21.7489 0001447  77.2752 282.8409 15.28013888 31695,15.28013888,0.0001447,LEO
57948,STARLINK-30709,2023,94.49,-1.0,+,53.09,Active,0,LEO,USA,USA,Unknown,Unknown,Falcon,1 57948U 23148P   24102.20353202  .00051053  00000+0  20771-2 0  9999,2 57948  53.0929  23.4576 0004770 188.0254 172.0667 15.24038949 31644,15.24038949,0.000477,LEO
